[{"OBJECT_NAME":"HINODE (SOLAR-B)","OBJECT_ID":"2006-041A","EPOCH":"2026-03-09T23:31:46.832160","MEAN_MOTION":14.68474529,"ECCENTRICITY":0.00163234,"INCLINATION":98.0624,"RA_OF_ASC_NODE":86.5729,"ARG_OF_PERICENTER":240.6819,"MEAN_ANOMALY":119.2756,"EPHEMERIS_TYPE":0,"CLASSIFICATION_TYPE":"U","NORAD_CAT_ID":29479,"ELEMENT_SET_NO":999,"REV_AT_EPOCH":4031,"BSTAR":0.00015629545,"MEAN_MOTION_DOT":8.58e-6,"MEAN_MOTION_DDOT":0},{"OBJECT_NAME":"CZ-6A DEB","OBJECT_ID":"2024-140FY","EPOCH":"2026-03-09T23:20:42.365184","MEAN_MOTION":14.43097362,"ECCENTRICITY":0.01024754,"INCLINATION":88.8505,"RA_OF_ASC_NODE":273.3661,"ARG_OF_PERICENTER":195.6231,"MEAN_ANOMALY":164.1804,"EPHEMERIS_TYPE":0,"CLASSIFICATION_TYPE":"U","NORAD_CAT_ID":60797,"ELEMENT_SET_NO":999,"REV_AT_EPOCH":8282,"BSTAR":0.00066062743,"MEAN_MOTION_DOT":2.377e-5,"MEAN_MOTION_DDOT":0}]
